[
    {
        "CCSDS_OMM_VERS": "3.0",
        "COMMENT": "GENERATED VIA SPACE-TRACK.ORG API",
        "CREATION_DATE": "2025-05-04T02:26:54",
        "ORIGINATOR": "18 SPCS",
        "OBJECT_NAME": "NAVSTAR 65 (USA 213)",
        "OBJECT_ID": "2010-022A",
        "CENTER_NAME": "EARTH",
        "REF_FRAME": "TEME",
        "TIME_SYSTEM": "UTC",
        "MEAN_ELEMENT_THEORY": "SGP4",
        "EPOCH": "2025-05-03T15:03:12.690144",
        "MEAN_MOTION": "2.00567600",
        "ECCENTRICITY": "0.01209460",
        "INCLINATION": "54.3485",
        "RA_OF_ASC_NODE": "225.0675",
        "ARG_OF_PERICENTER": "64.0019",
        "MEAN_ANOMALY": "299.1658",
        "EPHEMERIS_TYPE": "0",
        "CLASSIFICATION_TYPE": "U",
        "NORAD_CAT_ID": "36585",
        "ELEMENT_SET_NO": "999",
        "REV_AT_EPOCH": "10938",
        "BSTAR": "0.00000000000000",
        "MEAN_MOTION_DOT": "-0.00000034",
        "MEAN_MOTION_DDOT": "0.0000000000000",
        "SEMIMAJOR_AXIS": "26559.995",
        "PERIOD": "717.962",
        "APOAPSIS": "20503.093",
        "PERIAPSIS": "19860.628",
        "OBJECT_TYPE": "PAYLOAD",
        "RCS_SIZE": "LARGE",
        "COUNTRY_CODE": "US",
        "LAUNCH_DATE": "2010-05-28",
        "SITE": "AFETR",
        "DECAY_DATE": null,
        "FILE": "4718307",
        "GP_ID": "286795140",
        "TLE_LINE0": "0 NAVSTAR 65 (USA 213)",
        "TLE_LINE1": "1 36585U 10022A   25123.62723021 -.00000034  00000-0  00000-0 0  9996",
        "TLE_LINE2": "2 36585  54.3485 225.0675 0120946  64.0019 299.1658  2.00567600109384"
    }
]